{"type":"FeatureCollection","name":"Nepal_Provinces","features":[{"type":"Feature","properties":{"PROVINCE":"Province 1"},"geometry":{"type":"Polygon","coordinates":[[[87.35,26.35],[88.2,26.35],[88.2,27.6],[87.3,27.6],[87.35,26.35]]]}},{"type":"Feature","properties":{"PROVINCE":"Madhesh"},"geometry":{"type":"Polygon","coordinates":[[[85.95,26.35],[87.35,26.35],[87.3,27.6],[85.95,27.6],[85.95,26.35]]]}},{"type":"Feature","properties":{"PROVINCE":"Bagmati"},"geometry":{"type":"Polygon","coordinates":[[[84.6,26.8],[85.95,26.8],[85.95,28.1],[84.6,28.1],[84.6,26.8]]]}},{"type":"Feature","properties":{"PROVINCE":"Gandaki"},"geometry":{"type":"Polygon","coordinates":[[[83.4,27.2],[84.6,27.2],[84.6,28.6],[83.4,28.6],[83.4,27.2]]]}},{"type":"Feature","properties":{"PROVINCE":"Lumbini"},"geometry":{"type":"Polygon","coordinates":[[[82.15,26.6],[83.4,26.6],[83.4,28.2],[82.15,28.2],[82.15,26.6]]]}},{"type":"Feature","properties":{"PROVINCE":"Karnali"},"geometry":{"type":"Polygon","coordinates":[[[81,27.4],[82.15,27.4],[82.15,29.2],[81,29.2],[81,27.4]]]}},{"type":"Feature","properties":{"PROVINCE":"Sudurpashchim"},"geometry":{"type":"Polygon","coordinates":[[[80,27.7],[81,27.7],[81,29.5],[80,29.5],[80,27.7]]]}}]}